{
  "norad_id": 67112,
  "name": "STARLINK-35906",
  "history": [
    {
      "epoch": "2026-03-28T15:42:30.032064",
      "apogee_km": 484.1599356740189,
      "perigee_km": 481.80794341594356,
      "latitude_deg": -35.51315489827767,
      "longitude_deg": -125.96663103997707,
      "semi_major_axis_km": 6861.120939544981,
      "eccentricity": 0.0001714,
      "inclination_deg": 43.0041,
      "raan_deg": 62.153,
      "arg_perigee_deg": 283.1835,
      "mean_anomaly_deg": 76.8825,
      "mean_motion_rev_day": 15.2760176
    }
  ]
}